STARLINK-35259          
1 66198U 25243W   25329.00004630  .00085339  00000+0  28674-2 0  9996
2 66198  53.1589  11.8825 0001024  73.7262 163.8275 15.30122435  5735
STARLINK-35509          
1 66199U 25243Y   25329.00004630 -.01973419  00000+0 -47818-1 0  9995
2 66199  53.1595  11.6033 0001016  79.7731 298.4635 15.43942046  5737
STARLINK-35551          
1 66200U 25243Z   25329.00004630 -.01965105  00000+0 -45527-1 0  9996
2 66200  53.1598  11.6026 0001187 101.4844 277.7410 15.45232569  5737
STARLINK-35543          
1 66201U 25243AA  25329.00004630 -.02000482  00000+0 -48045-1 0  9994
2 66201  53.1590  11.6128 0001004  81.7495 291.9450 15.44249356  5792
STARLINK-35534          
1 66202U 25243AB  25329.00004630 -.01971597  00000+0 -48963-1 0  9997
2 66202  53.1594  11.6251 0001181  94.3830 272.8966 15.43216254  5737
STARLINK-35548          
1 66203U 25243AC  25329.00004630 -.01970805  00000+0 -50693-1 0  9992
2 66203  53.1603  11.6400 0001254  91.6616 268.2588 15.42178190  5798
STARLINK-35490          
1 66204U 25243AD  25329.00004630 -.01990126  00000+0 -54912-1 0  9999
2 66204  53.1600  11.6757 0001287  89.9398 252.6932 15.40120330  5683
STARLINK-35748          
1 66206U 25244A   25328.82485943  .00065143  00000+0  16237-2 0  9999
2 66206  53.1613   0.5938 0000981  62.5126 297.5978 15.39637754  5558
STARLINK-35747          
1 66207U 25244B   25329.00004630 -.02500817  00000+0 -30488-1 0  9990
2 66207  53.1592 357.4069 0001029  98.8483 243.7500 15.63457034  5402
STARLINK-35751          
1 66208U 25244C   25328.82453119  .00089254  00000+0  22122-2 0  9990
2 66208  53.1610   0.5898 0001932  80.6452 279.4772 15.39662294  5550
STARLINK-35750          
1 66209U 25244D   25328.81988905  .00061466  00000+0  15332-2 0  9996
2 66209  53.1601   0.5581 0002218  88.6571 271.4688 15.39640976  5559
STARLINK-35740          
1 66210U 25244E   25328.82021760  .00047858  00000+0  11983-2 0  9993
2 66210  53.1612   0.5595 0001263  94.4415 265.6734 15.39635239  5552
