CCSDS_OMM_VERS = 2.0
CREATION_DATE  = 
ORIGINATOR     = 

OBJECT_NAME    = STARLINK-35259
OBJECT_ID      = 2025-243W
CENTER_NAME    = EARTH
REF_FRAME      = TEME
TIME_SYSTEM    = UTC
MEAN_ELEMENT_THEORY = SGP/SGP4

EPOCH          = 2025-11-25T00:00:04.000320
MEAN_MOTION    = 15.30122435
ECCENTRICITY   = .00010245
INCLINATION    = 53.1589
RA_OF_ASC_NODE = 11.8825
ARG_OF_PERICENTER = 73.7262
MEAN_ANOMALY   = 163.8275

EPHEMERIS_TYPE = 0
CLASSIFICATION_TYPE = U
NORAD_CAT_ID   = 66198
ELEMENT_SET_NO = 999
REV_AT_EPOCH   = 573
BSTAR          = .28673862E-2
MEAN_MOTION_DOT = .85339E-3
MEAN_MOTION_DDOT = 0

CCSDS_OMM_VERS = 2.0
CREATION_DATE  = 
ORIGINATOR     = 

OBJECT_NAME    = STARLINK-35509
OBJECT_ID      = 2025-243Y
CENTER_NAME    = EARTH
REF_FRAME      = TEME
TIME_SYSTEM    = UTC
MEAN_ELEMENT_THEORY = SGP/SGP4

EPOCH          = 2025-11-25T00:00:04.000320
MEAN_MOTION    = 15.43942046
ECCENTRICITY   = .00010166
INCLINATION    = 53.1595
RA_OF_ASC_NODE = 11.6033
ARG_OF_PERICENTER = 79.7731
MEAN_ANOMALY   = 298.4635

EPHEMERIS_TYPE = 0
CLASSIFICATION_TYPE = U
NORAD_CAT_ID   = 66199
ELEMENT_SET_NO = 999
REV_AT_EPOCH   = 573
BSTAR          = -.47817776E-1
MEAN_MOTION_DOT = -.1973419E-1
MEAN_MOTION_DDOT = 0

CCSDS_OMM_VERS = 2.0
CREATION_DATE  = 
ORIGINATOR     = 

OBJECT_NAME    = STARLINK-35551
OBJECT_ID      = 2025-243Z
CENTER_NAME    = EARTH
REF_FRAME      = TEME
TIME_SYSTEM    = UTC
MEAN_ELEMENT_THEORY = SGP/SGP4

EPOCH          = 2025-11-25T00:00:04.000320
MEAN_MOTION    = 15.45232569
ECCENTRICITY   = .00011875
INCLINATION    = 53.1598
RA_OF_ASC_NODE = 11.6026
ARG_OF_PERICENTER = 101.4844
MEAN_ANOMALY   = 277.7410

EPHEMERIS_TYPE = 0
CLASSIFICATION_TYPE = U
NORAD_CAT_ID   = 66200
ELEMENT_SET_NO = 999
REV_AT_EPOCH   = 573
BSTAR          = -.45526829E-1
MEAN_MOTION_DOT = -.1965105E-1
MEAN_MOTION_DDOT = 0

CCSDS_OMM_VERS = 2.0
CREATION_DATE  = 
ORIGINATOR     = 

OBJECT_NAME    = STARLINK-35543
OBJECT_ID      = 2025-243AA
CENTER_NAME    = EARTH
REF_FRAME      = TEME
TIME_SYSTEM    = UTC
MEAN_ELEMENT_THEORY = SGP/SGP4

EPOCH          = 2025-11-25T00:00:04.000320
MEAN_MOTION    = 15.44249356
ECCENTRICITY   = .00010044
INCLINATION    = 53.1590
RA_OF_ASC_NODE = 11.6128
ARG_OF_PERICENTER = 81.7495
MEAN_ANOMALY   = 291.9450

EPHEMERIS_TYPE = 0
CLASSIFICATION_TYPE = U
NORAD_CAT_ID   = 66201
ELEMENT_SET_NO = 999
REV_AT_EPOCH   = 579
BSTAR          = -.48044971E-1
MEAN_MOTION_DOT = -.2000482E-1
MEAN_MOTION_DDOT = 0

CCSDS_OMM_VERS = 2.0
CREATION_DATE  = 
ORIGINATOR     = 

OBJECT_NAME    = STARLINK-35534
OBJECT_ID      = 2025-243AB
CENTER_NAME    = EARTH
REF_FRAME      = TEME
TIME_SYSTEM    = UTC
MEAN_ELEMENT_THEORY = SGP/SGP4

EPOCH          = 2025-11-25T00:00:04.000320
MEAN_MOTION    = 15.43216254
ECCENTRICITY   = .00011816
INCLINATION    = 53.1594
RA_OF_ASC_NODE = 11.6251
ARG_OF_PERICENTER = 94.3830
MEAN_ANOMALY   = 272.8966

EPHEMERIS_TYPE = 0
CLASSIFICATION_TYPE = U
NORAD_CAT_ID   = 66202
ELEMENT_SET_NO = 999
REV_AT_EPOCH   = 573
BSTAR          = -.48963193E-1
MEAN_MOTION_DOT = -.1971597E-1
MEAN_MOTION_DDOT = 0

CCSDS_OMM_VERS = 2.0
CREATION_DATE  = 
ORIGINATOR     = 

OBJECT_NAME    = STARLINK-35548
OBJECT_ID      = 2025-243AC
CENTER_NAME    = EARTH
REF_FRAME      = TEME
TIME_SYSTEM    = UTC
MEAN_ELEMENT_THEORY = SGP/SGP4

EPOCH          = 2025-11-25T00:00:04.000320
MEAN_MOTION    = 15.42178190
ECCENTRICITY   = .00012543
INCLINATION    = 53.1603
RA_OF_ASC_NODE = 11.6400
ARG_OF_PERICENTER = 91.6616
MEAN_ANOMALY   = 268.2588

EPHEMERIS_TYPE = 0
CLASSIFICATION_TYPE = U
NORAD_CAT_ID   = 66203
ELEMENT_SET_NO = 999
REV_AT_EPOCH   = 579
BSTAR          = -.50692977E-1
MEAN_MOTION_DOT = -.1970805E-1
MEAN_MOTION_DDOT = 0

CCSDS_OMM_VERS = 2.0
CREATION_DATE  = 
ORIGINATOR     = 

OBJECT_NAME    = STARLINK-35490
OBJECT_ID      = 2025-243AD
CENTER_NAME    = EARTH
REF_FRAME      = TEME
TIME_SYSTEM    = UTC
MEAN_ELEMENT_THEORY = SGP/SGP4

EPOCH          = 2025-11-25T00:00:04.000320
MEAN_MOTION    = 15.40120330
ECCENTRICITY   = .00012876
INCLINATION    = 53.1600
RA_OF_ASC_NODE = 11.6757
ARG_OF_PERICENTER = 89.9398
MEAN_ANOMALY   = 252.6932

EPHEMERIS_TYPE = 0
CLASSIFICATION_TYPE = U
NORAD_CAT_ID   = 66204
ELEMENT_SET_NO = 999
REV_AT_EPOCH   = 568
BSTAR          = -.54912342E-1
MEAN_MOTION_DOT = -.1990126E-1
MEAN_MOTION_DDOT = 0

CCSDS_OMM_VERS = 2.0
CREATION_DATE  = 
ORIGINATOR     = 

OBJECT_NAME    = STARLINK-35748
OBJECT_ID      = 2025-244A
CENTER_NAME    = EARTH
REF_FRAME      = TEME
TIME_SYSTEM    = UTC
MEAN_ELEMENT_THEORY = SGP/SGP4

EPOCH          = 2025-11-24T19:47:47.854752
MEAN_MOTION    = 15.39637754
ECCENTRICITY   = .00009813
INCLINATION    = 53.1613
RA_OF_ASC_NODE = 0.5938
ARG_OF_PERICENTER = 62.5126
MEAN_ANOMALY   = 297.5978

EPHEMERIS_TYPE = 0
CLASSIFICATION_TYPE = U
NORAD_CAT_ID   = 66206
ELEMENT_SET_NO = 999
REV_AT_EPOCH   = 555
BSTAR          = .16237237E-2
MEAN_MOTION_DOT = .65143E-3
MEAN_MOTION_DDOT = 0

CCSDS_OMM_VERS = 2.0
CREATION_DATE  = 
ORIGINATOR     = 

OBJECT_NAME    = STARLINK-35747
OBJECT_ID      = 2025-244B
CENTER_NAME    = EARTH
REF_FRAME      = TEME
TIME_SYSTEM    = UTC
MEAN_ELEMENT_THEORY = SGP/SGP4

EPOCH          = 2025-11-25T00:00:04.000320
MEAN_MOTION    = 15.63457034
ECCENTRICITY   = .00010295
INCLINATION    = 53.1592
RA_OF_ASC_NODE = 357.4069
ARG_OF_PERICENTER = 98.8483
MEAN_ANOMALY   = 243.7500

EPHEMERIS_TYPE = 0
CLASSIFICATION_TYPE = U
NORAD_CAT_ID   = 66207
ELEMENT_SET_NO = 999
REV_AT_EPOCH   = 540
BSTAR          = -.30487736E-1
MEAN_MOTION_DOT = -.2500817E-1
MEAN_MOTION_DDOT = 0

CCSDS_OMM_VERS = 2.0
CREATION_DATE  = 
ORIGINATOR     = 

OBJECT_NAME    = STARLINK-35751
OBJECT_ID      = 2025-244C
CENTER_NAME    = EARTH
REF_FRAME      = TEME
TIME_SYSTEM    = UTC
MEAN_ELEMENT_THEORY = SGP/SGP4

EPOCH          = 2025-11-24T19:47:19.494816
MEAN_MOTION    = 15.39662294
ECCENTRICITY   = .00019324
INCLINATION    = 53.1610
RA_OF_ASC_NODE = 0.5898
ARG_OF_PERICENTER = 80.6452
MEAN_ANOMALY   = 279.4772

EPHEMERIS_TYPE = 0
CLASSIFICATION_TYPE = U
NORAD_CAT_ID   = 66208
ELEMENT_SET_NO = 999
REV_AT_EPOCH   = 555
BSTAR          = .22121985E-2
MEAN_MOTION_DOT = .89254E-3
MEAN_MOTION_DDOT = 0

CCSDS_OMM_VERS = 2.0
CREATION_DATE  = 
ORIGINATOR     = 

OBJECT_NAME    = STARLINK-35750
OBJECT_ID      = 2025-244D
CENTER_NAME    = EARTH
REF_FRAME      = TEME
TIME_SYSTEM    = UTC
MEAN_ELEMENT_THEORY = SGP/SGP4

EPOCH          = 2025-11-24T19:40:38.413920
MEAN_MOTION    = 15.39640976
ECCENTRICITY   = .00022189
INCLINATION    = 53.1601
RA_OF_ASC_NODE = 0.5581
ARG_OF_PERICENTER = 88.6571
MEAN_ANOMALY   = 271.4688

EPHEMERIS_TYPE = 0
CLASSIFICATION_TYPE = U
NORAD_CAT_ID   = 66209
ELEMENT_SET_NO = 999
REV_AT_EPOCH   = 555
BSTAR          = .15331752E-2
MEAN_MOTION_DOT = .61466E-3
MEAN_MOTION_DDOT = 0

CCSDS_OMM_VERS = 2.0
CREATION_DATE  = 
ORIGINATOR     = 

OBJECT_NAME    = STARLINK-35740
OBJECT_ID      = 2025-244E
CENTER_NAME    = EARTH
REF_FRAME      = TEME
TIME_SYSTEM    = UTC
MEAN_ELEMENT_THEORY = SGP/SGP4

EPOCH          = 2025-11-24T19:41:06.800640
MEAN_MOTION    = 15.39635239
ECCENTRICITY   = .00012636
INCLINATION    = 53.1612
RA_OF_ASC_NODE = 0.5595
ARG_OF_PERICENTER = 94.4415
MEAN_ANOMALY   = 265.6734

EPHEMERIS_TYPE = 0
CLASSIFICATION_TYPE = U
NORAD_CAT_ID   = 66210
ELEMENT_SET_NO = 999
REV_AT_EPOCH   = 555
BSTAR          = .11983287E-2
MEAN_MOTION_DOT = .47858E-3
MEAN_MOTION_DDOT = 0

